{"type": "FeatureCollection", "features": [ {"type": "Feature", "properties": {"norad_id": 66472, "name": "STARLINK-35567", "group": "last-30-days", "lat": -42.56154952778389, "lon": 25.226308100506845, "alt_km": 417.649344657264, "timestamp": "2025-12-06T20:37:54.812544+00:00", "meta": {"OBJECT_NAME": "STARLINK-35567", "OBJECT_ID": "2025-262S", "EPOCH": "2025-12-06T14:00:01.999872", "MEAN_MOTION": 15.50620655, "ECCENTRICITY": 0.00012014, "INCLINATION": 43.0005, "RA_OF_ASC_NODE": 107.0583, "ARG_OF_PERICENTER": 270.0365, "MEAN_ANOMALY": 262.9488, "EPHEMERIS_TYPE": 0, "CLASSIFICATION_TYPE": "U", "NORAD_CAT_ID": 66472, "ELEMENT_SET_NO": 999, "REV_AT_EPOCH": 464, "BSTAR": -0.002242162, "MEAN_MOTION_DOT": -0.00129909, "MEAN_MOTION_DDOT": 0}, "tle": {"line1": "1 66472U 25262S   25340.58335648 -.00129909  00000+0 -22422-2 0  9993", "line2": "2 66472  43.0005 107.0583 0001201 270.0365 262.9488 15.50620655  4648"}}, "geometry": {"type": "Point", "coordinates": [25.226308100506845, -42.56154952778389]}}, {"type": "Feature", "properties": {"norad_id": 66473, "name": "STARLINK-35568", "group": "last-30-days", "lat": -42.31065912702469, "lon": 27.79547456895091, "alt_km": 417.5097215969872, "timestamp": "2025-12-06T20:37:54.812554+00:00", "meta": {"OBJECT_NAME": "STARLINK-35568", "OBJECT_ID": "2025-262T", "EPOCH": "2025-12-06T14:00:01.999872", "MEAN_MOTION": 15.50628037, "ECCENTRICITY": 0.00013853, "INCLINATION": 43.0005, "RA_OF_ASC_NODE": 107.0533, "ARG_OF_PERICENTER": 276.8898, "MEAN_ANOMALY": 258.0124, "EPHEMERIS_TYPE": 0, "CLASSIFICATION_TYPE": "U", "NORAD_CAT_ID": 66473, "ELEMENT_SET_NO": 999, "REV_AT_EPOCH": 464, "BSTAR": -0.0024763781, "MEAN_MOTION_DOT": -0.00143242, "MEAN_MOTION_DDOT": 0}, "tle": {"line1": "1 66473U 25262T   25340.58335648 -.00143242  00000+0 -24764-2 0  9991", "line2": "2 66473  43.0005 107.0533 0001385 276.8898 258.0124 15.50628037  4647"}}, "geometry": {"type": "Point", "coordinates": [27.79547456895091, -42.31065912702469]}}, {"type": "Feature", "properties": {"norad_id": 66474, "name": "STARLINK-35620", "group": "last-30-days", "lat": -42.01586240043581, "lon": 30.24093293274377, "alt_km": 417.390756548084, "timestamp": "2025-12-06T20:37:54.812564+00:00", "meta": {"OBJECT_NAME": "STARLINK-35620", "OBJECT_ID": "2025-262U", "EPOCH": "2025-12-06T14:00:01.999872", "MEAN_MOTION": 15.50593737, "ECCENTRICITY": 0.00013261, "INCLINATION": 43.0005, "RA_OF_ASC_NODE": 107.0472, "ARG_OF_PERICENTER": 276.5334, "MEAN_ANOMALY": 260.2008, "EPHEMERIS_TYPE": 0, "CLASSIFICATION_TYPE": "U", "NORAD_CAT_ID": 66474, "ELEMENT_SET_NO": 999, "REV_AT_EPOCH": 464, "BSTAR": 0.00034378926, "MEAN_MOTION_DOT": 0.00019888, "MEAN_MOTION_DDOT": 0}, "tle": {"line1": "1 66474U 25262U   25340.58335648  .00019888  00000+0  34379-3 0  9992", "line2": "2 66474  43.0005 107.0472 0001326 276.5334 260.2008 15.50593737  4641"}}, "geometry": {"type": "Point", "coordinates": [30.24093293274377, -42.01586240043581]}}, {"type": "Feature", "properties": {"norad_id": 66475, "name": "STARLINK-35538", "group": "last-30-days", "lat": -41.64134240862291, "lon": 32.84491626680287, "alt_km": 417.43434004645405, "timestamp": "2025-12-06T20:37:54.812575+00:00", "meta": {"OBJECT_NAME": "STARLINK-35538", "OBJECT_ID": "2025-262V", "EPOCH": "2025-12-06T14:00:01.999872", "MEAN_MOTION": 15.5059098, "ECCENTRICITY": 0.00014511, "INCLINATION": 43.0004, "RA_OF_ASC_NODE": 107.0436, "ARG_OF_PERICENTER": 269.092, "MEAN_ANOMALY": 269.645, "EPHEMERIS_TYPE": 0, "CLASSIFICATION_TYPE": "U", "NORAD_CAT_ID": 66475, "ELEMENT_SET_NO": 999, "REV_AT_EPOCH": 464, "BSTAR": -0.00096528521, "MEAN_MOTION_DOT": -0.00056586, "MEAN_MOTION_DDOT": 0}, "tle": {"line1": "1 66475U 25262V   25340.58335648 -.00056586  00000+0 -96529-3 0  9996", "line2": "2 66475  43.0004 107.0436 0001451 269.0920 269.6450 15.50590980  4649"}}, "geometry": {"type": "Point", "coordinates": [32.84491626680287, -41.64134240862291]}}, {"type": "Feature", "properties": {"norad_id": 66476, "name": "STARLINK-35372", "group": "last-30-days", "lat": -41.22174020473867, "lon": 35.34344177231255, "alt_km": 417.50809704371113, "timestamp": "2025-12-06T20:37:54.812585+00:00", "meta": {"OBJECT_NAME": "STARLINK-35372", "OBJECT_ID": "2025-262W", "EPOCH": "2025-12-06T14:00:01.999872", "MEAN_MOTION": 15.50621308, "ECCENTRICITY": 0.00013649, "INCLINATION": 43.0005, "RA_OF_ASC_NODE": 107.0389, "ARG_OF_PERICENTER": 268.6717, "MEAN_ANOMALY": 271.9814, "EPHEMERIS_TYPE": 0, "CLASSIFICATION_TYPE": "U", "NORAD_CAT_ID": 66476, "ELEMENT_SET_NO": 999, "REV_AT_EPOCH": 454, "BSTAR": -0.002252147, "MEAN_MOTION_DOT": -0.00130482, "MEAN_MOTION_DDOT": 0}, "tle": {"line1": "1 66476U 25262W   25340.58335648 -.00130482  00000+0 -22521-2 0  9995", "line2": "2 66476  43.0005 107.0389 0001364 268.6717 271.9814 15.50621308  4548"}}, "geometry": {"type": "Point", "coordinates": [35.34344177231255, -41.22174020473867]}}, {"type": "Feature", "properties": {"norad_id": 66477, "name": "STARLINK-35354", "group": "last-30-days", "lat": -40.23022730707525, "lon": 40.20510485127236, "alt_km": 417.5771029591324, "timestamp": "2025-12-06T20:37:54.812599+00:00", "meta": {"OBJECT_NAME": "STARLINK-35354", "OBJECT_ID": "2025-262X", "EPOCH": "2025-12-06T14:00:01.999872", "MEAN_MOTION": 15.50616737, "ECCENTRICITY": 0.00011796, "INCLINATION": 43.0005, "RA_OF_ASC_NODE": 107.0282, "ARG_OF_PERICENTER": 275.1573, "MEAN_ANOMALY": 269.3273, "EPHEMERIS_TYPE": 0, "CLASSIFICATION_TYPE": "U", "NORAD_CAT_ID": 66477, "ELEMENT_SET_NO": 999, "REV_AT_EPOCH": 464, "BSTAR": -0.0020828271, "MEAN_MOTION_DOT": -0.00120823, "MEAN_MOTION_DDOT": 0}, "tle": {"line1": "1 66477U 25262X   25340.58335648 -.00120823  00000+0 -20828-2 0  9992", "line2": "2 66477  43.0005 107.0282 0001179 275.1573 269.3273 15.50616737  4649"}}, "geometry": {"type": "Point", "coordinates": [40.20510485127236, -40.23022730707525]}}, {"type": "Feature", "properties": {"norad_id": 66478, "name": "STARLINK-35283", "group": "last-30-days", "lat": -39.65637133548438, "lon": 42.591463352401036, "alt_km": 417.4891629198901, "timestamp": "2025-12-06T20:37:54.812609+00:00", "meta": {"OBJECT_NAME": "STARLINK-35283", "OBJECT_ID": "2025-262Y", "EPOCH": "2025-12-06T14:00:01.999872", "MEAN_MOTION": 15.50626952, "ECCENTRICITY": 0.0001316, "INCLINATION": 43.0006, "RA_OF_ASC_NODE": 107.0231, "ARG_OF_PERICENTER": 270.3113, "MEAN_ANOMALY": 276.0907, "EPHEMERIS_TYPE": 0, "CLASSIFICATION_TYPE": "U", "NORAD_CAT_ID": 66478, "ELEMENT_SET_NO": 999, "REV_AT_EPOCH": 464, "BSTAR": -0.0024326605, "MEAN_MOTION_DOT": -0.00140757, "MEAN_MOTION_DDOT": 0}, "tle": {"line1": "1 66478U 25262Y   25340.58335648 -.00140757  00000+0 -24327-2 0  9999", "line2": "2 66478  43.0006 107.0231 0001316 270.3113 276.0907 15.50626952  4644"}}, "geometry": {"type": "Point", "coordinates": [42.591463352401036, -39.65637133548438]}}, {"type": "Feature", "properties": {"norad_id": 66479, "name": "STARLINK-35581", "group": "last-30-days", "lat": -40.75087095878735, "lon": 37.7957471641682, "alt_km": 417.64208389297437, "timestamp": "2025-12-06T20:37:54.812621+00:00", "meta": {"OBJECT_NAME": "STARLINK-35581", "OBJECT_ID": "2025-262Z", "EPOCH": "2025-12-06T14:00:01.999872", "MEAN_MOTION": 15.50624261, "ECCENTRICITY": 0.0001135, "INCLINATION": 43.0006, "RA_OF_ASC_NODE": 107.0328, "ARG_OF_PERICENTER": 268.7461, "MEAN_ANOMALY": 273.8227, "EPHEMERIS_TYPE": 0, "CLASSIFICATION_TYPE": "U", "NORAD_CAT_ID": 66479, "ELEMENT_SET_NO": 999, "REV_AT_EPOCH": 464, "BSTAR": -0.0023109307, "MEAN_MOTION_DOT": -0.00133833, "MEAN_MOTION_DDOT": 0}, "tle": {"line1": "1 66479U 25262Z   25340.58335648 -.00133833  00000+0 -23109-2 0  9994", "line2": "2 66479  43.0006 107.0328 0001135 268.7461 273.8227 15.50624261  4649"}}, "geometry": {"type": "Point", "coordinates": [37.7957471641682, -40.75087095878735]}}, {"type": "Feature", "properties": {"norad_id": 66480, "name": "STARLINK-35670", "group": "last-30-days", "lat": -39.03908515640736, "lon": 44.91812904209118, "alt_km": 417.49042212319, "timestamp": "2025-12-06T20:37:54.812660+00:00", "meta": {"OBJECT_NAME": "STARLINK-35670", "OBJECT_ID": "2025-262AA", "EPOCH": "2025-12-06T14:00:01.999872", "MEAN_MOTION": 15.50592684, "ECCENTRICITY": 0.00012782, "INCLINATION": 43.0004, "RA_OF_ASC_NODE": 107.0176, "ARG_OF_PERICENTER": 274.2918, "MEAN_ANOMALY": 274.0383, "EPHEMERIS_TYPE": 0, "CLASSIFICATION_TYPE": "U", "NORAD_CAT_ID": 66480, "ELEMENT_SET_NO": 999, "REV_AT_EPOCH": 464, "BSTAR": -0.0014620755, "MEAN_MOTION_DOT": -0.00085227, "MEAN_MOTION_DDOT": 0}, "tle": {"line1": "1 66480U 25262AA  25340.58335648 -.00085227  00000+0 -14621-2 0  9998", "line2": "2 66480  43.0004 107.0176 0001278 274.2918 274.0383 15.50592684  4646"}}, "geometry": {"type": "Point", "coordinates": [44.91812904209118, -39.03908515640736]}}, {"type": "Feature", "properties": {"norad_id": 66481, "name": "STARLINK-35698", "group": "last-30-days", "lat": -38.36835387259528, "lon": 47.23089340173375, "alt_km": 417.523858541359, "timestamp": "2025-12-06T20:37:54.812673+00:00", "meta": {"OBJECT_NAME": "STARLINK-35698", "OBJECT_ID": "2025-262AB", "EPOCH": "2025-12-06T14:00:01.999872", "MEAN_MOTION": 15.50626673, "ECCENTRICITY": 0.0001215, "INCLINATION": 43.0006, "RA_OF_ASC_NODE": 107.0129, "ARG_OF_PERICENTER": 269.3378, "MEAN_ANOMALY": 280.9049, "EPHEMERIS_TYPE": 0, "CLASSIFICATION_TYPE": "U", "NORAD_CAT_ID": 66481, "ELEMENT_SET_NO": 999, "REV_AT_EPOCH": 464, "BSTAR": -0.0024693128, "MEAN_MOTION_DOT": -0.00142832, "MEAN_MOTION_DDOT": 0}, "tle": {"line1": "1 66481U 25262AB  25340.58335648 -.00142832  00000+0 -24693-2 0  9995", "line2": "2 66481  43.0006 107.0129 0001215 269.3378 280.9049 15.50626673  4644"}}, "geometry": {"type": "Point", "coordinates": [47.23089340173375, -38.36835387259528]}}]}